STARLINK-2707           
1 48669U 21044AH  26068.79677114 -.00000117  00000+0  81732-5 0  9993
2 48669  53.1615 103.6099 0001260  94.7454 265.3690 15.30195068263972
NUSAT-49 (KLARA DAN VO*)
1 60500U 24149AJ  26068.79810190  .00012912  00000+0  43568-3 0  9991
2 60500  97.3807 150.7380 0001132 286.7761  73.3356 15.30828857 86935
